ORBCOMM FM05            
1 25117U 97084F   25141.40851762  .00001144  00000+0  35931-3 0  9993
2 25117  45.0133 136.6209 0001337 357.5217   2.5628 14.45862933436736
ORBCOMM FM06            
1 25118U 97084G   25141.36067462  .00001241  00000+0  38553-3 0  9996
2 25118  45.0126 136.6178 0001556 315.9755 184.0718 14.45993136437649
ORBCOMM FM07            
1 25119U 97084H   25141.34713276  .00001169  00000+0  36548-3 0  9997
2 25119  45.0122 137.4514 0001910  18.1777 341.9142 14.45984693437631
ORBCOMM FM03            
1 25158U 98007B   25141.55548681  .00000994  00000+0  39456-3 0  9991
2 25158 107.9650  80.8941 0046783 295.5096  64.1210 14.34446676420224
ORBCOMM FM04            
1 25159U 98007C   25141.61404334  .00000921  00000+0  36814-3 0  9990
2 25159 107.9639  84.2173 0042516 292.8792  66.7862 14.34698398420412
ORBCOMM FM17            
1 25413U 98046A   25141.38769926  .00000738  00000+0  30563-3 0  9992
2 25413  44.9957  24.0808 0003090  62.8480 297.2681 14.35051018399326
ORBCOMM FM18            
1 25414U 98046B   25140.77916888  .00001142  00000+0  41642-3 0  9996
2 25414  44.9938 305.0818 0005466 149.9488 210.1674 14.38495896400309
ORBCOMM FM19            
1 25415U 98046C   25141.49466904  .00001060  00000+0  39156-3 0  9992
2 25415  44.9950 303.6433 0004252 149.8301 253.3310 14.38304710400362
